CSS (TIANHE)            
1 48274U 21035A   24134.15711351  .00053583  00000+0  55071-3 0  9998
2 48274  41.4683 297.0973 0003518 330.7772  29.2870 15.64019374173612
